ONEWEB-0514             
1 54132U 22138V   25210.95111531  .00000017  00000+0  10311-4 0  9994
2 54132  87.9234   9.0130 0001757  97.0913 263.0419 13.19726664134325
ONEWEB-0515             
1 54133U 22138W   25210.84947763  .00000065  00000+0  12769-3 0  9998
2 54133  87.9300 338.6333 0001014  86.1129 274.0120 13.20771715136759
ONEWEB-0516             
1 54134U 22138X   25210.85002843  .00000051  00000+0  94785-4 0  9995
2 54134  87.9226   9.0697 0001891  89.9652 270.1697 13.19726392134319
ONEWEB-0517             
1 54135U 22138Y   25210.98112987 -.00000051  00000+0 -15898-3 0  9990
2 54135  87.9233   9.0023 0001964 103.4741 256.6611 13.19726104135208
ONEWEB-0518             
1 54136U 22138Z   25210.84845854  .00000048  00000+0  87297-4 0  9999
2 54136  87.9231   9.0664 0002000  91.4179 268.7183 13.19725606134316
ONEWEB-0519             
1 54137U 22138AA  25210.94953984 -.00000034  00000+0 -11784-3 0  9999
2 54137  87.9233   9.0008 0001985 100.5739 259.5617 13.19725455134330
ONEWEB-0520             
1 54138U 22138AB  25210.83265555  .00000005  00000+0 -18833-4 0  9998
2 54138  87.9232   9.0278 0002108  88.3812 271.7562 13.19725731135177
ONEWEB-0521             
1 54139U 22138AC  25210.94163539  .00000001  00000+0 -29414-4 0  9993
2 54139  87.9231   8.9930 0001808 102.6754 257.4581 13.19726625134265
ONEWEB-0522             
1 54140U 22138AD  25210.84528223  .00000047  00000+0  84461-4 0  9991
2 54140  87.9232   9.0135 0001869  91.7673 268.3674 13.19726910134296
ONEWEB-0523             
1 54141U 22138AE  25210.91261707 -.00000023  00000+0 -89332-4 0  9999
2 54141  87.9293 338.6507 0001213 119.3982 240.7272 13.20771297136763
ONEWEB-0524             
1 54142U 22138AF  25211.05307635 -.00000003  00000+0 -38086-4 0  9995
2 54142  87.9290 338.6242 0001219  73.4497 286.6770 13.20771244137657
ONEWEB-0525             
1 54143U 22138AG  25210.94005703  .00000030  00000+0  42173-4 0  9994
2 54143  87.9235   9.0145 0002108  89.3905 270.7469 13.19726819134322
ONEWEB-0526             
1 54144U 22138AH  25210.89742371 -.00000010  00000+0 -56450-4 0  9991
2 54144  87.9231   9.0110 0001888  91.2681 268.8668 13.19725485134291
ONEWEB-0529             
1 54145U 22138AJ  25210.90058650 -.00000055  00000+0 -16977-3 0  9992
2 54145  87.9226   9.0532 0002023  88.6538 271.4826 13.19724971134315
ONEWEB-0531             
1 54146U 22138AK  25210.88736531  .00000028  00000+0  36904-4 0  9992
2 54146  87.9288 338.6507 0000985 107.0351 253.0890 13.20771814136769
ONEWEB-0535             
1 54147U 22138AL  25210.85793792  .00000052  00000+0  97102-4 0  9996
2 54147  87.9231   9.0145 0001536 102.7931 257.3374 13.19725740134323
ONEWEB-0536             
1 54148U 22138AM  25210.87472842 -.00000014  00000+0 -67149-4 0  9997
2 54148  87.9289 338.6988 0000830  95.4091 264.7137 13.20770814136756
