[{"OBJECT_NAME":"ONEWEB-0514","OBJECT_ID":"2022-138V","EPOCH":"2025-07-29T22:49:36.362784","MEAN_MOTION":13.19726664,"ECCENTRICITY":0.0001757,"INCLINATION":87.9234,"RA_OF_ASC_NODE":9.013,"ARG_OF_PERICENTER":97.0913,"MEAN_ANOMALY":263.0419,"EPHEMERIS_TYPE":0,"CLASSIFICATION_TYPE":"U","NORAD_CAT_ID":54132,"ELEMENT_SET_NO":999,"REV_AT_EPOCH":13432,"BSTAR":1.0311e-5,"MEAN_MOTION_DOT":1.7e-7,"MEAN_MOTION_DDOT":0},{"OBJECT_NAME":"ONEWEB-0515","OBJECT_ID":"2022-138W","EPOCH":"2025-07-29T20:23:14.867232","MEAN_MOTION":13.20771715,"ECCENTRICITY":0.0001014,"INCLINATION":87.93,"RA_OF_ASC_NODE":338.6333,"ARG_OF_PERICENTER":86.1129,"MEAN_ANOMALY":274.012,"EPHEMERIS_TYPE":0,"CLASSIFICATION_TYPE":"U","NORAD_CAT_ID":54133,"ELEMENT_SET_NO":999,"REV_AT_EPOCH":13675,"BSTAR":0.00012769,"MEAN_MOTION_DOT":6.5e-7,"MEAN_MOTION_DDOT":0},{"OBJECT_NAME":"ONEWEB-0516","OBJECT_ID":"2022-138X","EPOCH":"2025-07-29T20:24:02.456352","MEAN_MOTION":13.19726392,"ECCENTRICITY":0.0001891,"INCLINATION":87.9226,"RA_OF_ASC_NODE":9.0697,"ARG_OF_PERICENTER":89.9652,"MEAN_ANOMALY":270.1697,"EPHEMERIS_TYPE":0,"CLASSIFICATION_TYPE":"U","NORAD_CAT_ID":54134,"ELEMENT_SET_NO":999,"REV_AT_EPOCH":13431,"BSTAR":9.4785e-5,"MEAN_MOTION_DOT":5.1e-7,"MEAN_MOTION_DDOT":0},{"OBJECT_NAME":"ONEWEB-0517","OBJECT_ID":"2022-138Y","EPOCH":"2025-07-29T23:32:49.620768","MEAN_MOTION":13.19726104,"ECCENTRICITY":0.0001964,"INCLINATION":87.9233,"RA_OF_ASC_NODE":9.0023,"ARG_OF_PERICENTER":103.4741,"MEAN_ANOMALY":256.6611,"EPHEMERIS_TYPE":0,"CLASSIFICATION_TYPE":"U","NORAD_CAT_ID":54135,"ELEMENT_SET_NO":999,"REV_AT_EPOCH":13520,"BSTAR":-0.00015898,"MEAN_MOTION_DOT":-5.1e-7,"MEAN_MOTION_DDOT":0},{"OBJECT_NAME":"ONEWEB-0518","OBJECT_ID":"2022-138Z","EPOCH":"2025-07-29T20:21:46.817856","MEAN_MOTION":13.19725606,"ECCENTRICITY":0.0002,"INCLINATION":87.9231,"RA_OF_ASC_NODE":9.0664,"ARG_OF_PERICENTER":91.4179,"MEAN_ANOMALY":268.7183,"EPHEMERIS_TYPE":0,"CLASSIFICATION_TYPE":"U","NORAD_CAT_ID":54136,"ELEMENT_SET_NO":999,"REV_AT_EPOCH":13431,"BSTAR":8.7297e-5,"MEAN_MOTION_DOT":4.8e-7,"MEAN_MOTION_DDOT":0},{"OBJECT_NAME":"ONEWEB-0519","OBJECT_ID":"2022-138AA","EPOCH":"2025-07-29T22:47:20.242176","MEAN_MOTION":13.19725455,"ECCENTRICITY":0.0001985,"INCLINATION":87.9233,"RA_OF_ASC_NODE":9.0008,"ARG_OF_PERICENTER":100.5739,"MEAN_ANOMALY":259.5617,"EPHEMERIS_TYPE":0,"CLASSIFICATION_TYPE":"U","NORAD_CAT_ID":54137,"ELEMENT_SET_NO":999,"REV_AT_EPOCH":13433,"BSTAR":-0.00011784,"MEAN_MOTION_DOT":-3.4e-7,"MEAN_MOTION_DDOT":0},{"OBJECT_NAME":"ONEWEB-0520","OBJECT_ID":"2022-138AB","EPOCH":"2025-07-29T19:59:01.439520","MEAN_MOTION":13.19725731,"ECCENTRICITY":0.0002108,"INCLINATION":87.9232,"RA_OF_ASC_NODE":9.0278,"ARG_OF_PERICENTER":88.3812,"MEAN_ANOMALY":271.7562,"EPHEMERIS_TYPE":0,"CLASSIFICATION_TYPE":"U","NORAD_CAT_ID":54138,"ELEMENT_SET_NO":999,"REV_AT_EPOCH":13517,"BSTAR":-1.8833e-5,"MEAN_MOTION_DOT":5.0e-8,"MEAN_MOTION_DDOT":0},{"OBJECT_NAME":"ONEWEB-0521","OBJECT_ID":"2022-138AC","EPOCH":"2025-07-29T22:35:57.297696","MEAN_MOTION":13.19726625,"ECCENTRICITY":0.0001808,"INCLINATION":87.9231,"RA_OF_ASC_NODE":8.993,"ARG_OF_PERICENTER":102.6754,"MEAN_ANOMALY":257.4581,"EPHEMERIS_TYPE":0,"CLASSIFICATION_TYPE":"U","NORAD_CAT_ID":54139,"ELEMENT_SET_NO":999,"REV_AT_EPOCH":13426,"BSTAR":-2.9414e-5,"MEAN_MOTION_DOT":1.0e-8,"MEAN_MOTION_DDOT":0},{"OBJECT_NAME":"ONEWEB-0522","OBJECT_ID":"2022-138AD","EPOCH":"2025-07-29T20:17:12.384672","MEAN_MOTION":13.1972691,"ECCENTRICITY":0.0001869,"INCLINATION":87.9232,"RA_OF_ASC_NODE":9.0135,"ARG_OF_PERICENTER":91.7673,"MEAN_ANOMALY":268.3674,"EPHEMERIS_TYPE":0,"CLASSIFICATION_TYPE":"U","NORAD_CAT_ID":54140,"ELEMENT_SET_NO":999,"REV_AT_EPOCH":13429,"BSTAR":8.4461e-5,"MEAN_MOTION_DOT":4.7e-7,"MEAN_MOTION_DDOT":0},{"OBJECT_NAME":"ONEWEB-0523","OBJECT_ID":"2022-138AE","EPOCH":"2025-07-29T21:54:10.114848","MEAN_MOTION":13.20771297,"ECCENTRICITY":0.0001213,"INCLINATION":87.9293,"RA_OF_ASC_NODE":338.6507,"ARG_OF_PERICENTER":119.3982,"MEAN_ANOMALY":240.7272,"EPHEMERIS_TYPE":0,"CLASSIFICATION_TYPE":"U","NORAD_CAT_ID":54141,"ELEMENT_SET_NO":999,"REV_AT_EPOCH":13676,"BSTAR":-8.9332e-5,"MEAN_MOTION_DOT":-2.3e-7,"MEAN_MOTION_DDOT":0},{"OBJECT_NAME":"ONEWEB-0524","OBJECT_ID":"2022-138AF","EPOCH":"2025-07-30T01:16:25.796640","MEAN_MOTION":13.20771244,"ECCENTRICITY":0.0001219,"INCLINATION":87.929,"RA_OF_ASC_NODE":338.6242,"ARG_OF_PERICENTER":73.4497,"MEAN_ANOMALY":286.677,"EPHEMERIS_TYPE":0,"CLASSIFICATION_TYPE":"U","NORAD_CAT_ID":54142,"ELEMENT_SET_NO":999,"REV_AT_EPOCH":13765,"BSTAR":-3.8086e-5,"MEAN_MOTION_DOT":-3.0e-8,"MEAN_MOTION_DDOT":0},{"OBJECT_NAME":"ONEWEB-0525","OBJECT_ID":"2022-138AG","EPOCH":"2025-07-29T22:33:40.927392","MEAN_MOTION":13.19726819,"ECCENTRICITY":0.0002108,"INCLINATION":87.9235,"RA_OF_ASC_NODE":9.0145,"ARG_OF_PERICENTER":89.3905,"MEAN_ANOMALY":270.7469,"EPHEMERIS_TYPE":0,"CLASSIFICATION_TYPE":"U","NORAD_CAT_ID":54143,"ELEMENT_SET_NO":999,"REV_AT_EPOCH":13432,"BSTAR":4.2173e-5,"MEAN_MOTION_DOT":3.0e-7,"MEAN_MOTION_DDOT":0},{"OBJECT_NAME":"ONEWEB-0526","OBJECT_ID":"2022-138AH","EPOCH":"2025-07-29T21:32:17.408544","MEAN_MOTION":13.19725485,"ECCENTRICITY":0.0001888,"INCLINATION":87.9231,"RA_OF_ASC_NODE":9.011,"ARG_OF_PERICENTER":91.2681,"MEAN_ANOMALY":268.8668,"EPHEMERIS_TYPE":0,"CLASSIFICATION_TYPE":"U","NORAD_CAT_ID":54144,"ELEMENT_SET_NO":999,"REV_AT_EPOCH":13429,"BSTAR":-5.645e-5,"MEAN_MOTION_DOT":-1.0e-7,"MEAN_MOTION_DDOT":0},{"OBJECT_NAME":"ONEWEB-0529","OBJECT_ID":"2022-138AJ","EPOCH":"2025-07-29T21:36:50.673600","MEAN_MOTION":13.19724971,"ECCENTRICITY":0.0002023,"INCLINATION":87.9226,"RA_OF_ASC_NODE":9.0532,"ARG_OF_PERICENTER":88.6538,"MEAN_ANOMALY":271.4826,"EPHEMERIS_TYPE":0,"CLASSIFICATION_TYPE":"U","NORAD_CAT_ID":54145,"ELEMENT_SET_NO":999,"REV_AT_EPOCH":13431,"BSTAR":-0.00016977,"MEAN_MOTION_DOT":-5.5e-7,"MEAN_MOTION_DDOT":0},{"OBJECT_NAME":"ONEWEB-0531","OBJECT_ID":"2022-138AK","EPOCH":"2025-07-29T21:17:48.362784","MEAN_MOTION":13.20771814,"ECCENTRICITY":9.85e-5,"INCLINATION":87.9288,"RA_OF_ASC_NODE":338.6507,"ARG_OF_PERICENTER":107.0351,"MEAN_ANOMALY":253.089,"EPHEMERIS_TYPE":0,"CLASSIFICATION_TYPE":"U","NORAD_CAT_ID":54146,"ELEMENT_SET_NO":999,"REV_AT_EPOCH":13676,"BSTAR":3.6904e-5,"MEAN_MOTION_DOT":2.8e-7,"MEAN_MOTION_DDOT":0},{"OBJECT_NAME":"ONEWEB-0535","OBJECT_ID":"2022-138AL","EPOCH":"2025-07-29T20:35:25.836288","MEAN_MOTION":13.1972574,"ECCENTRICITY":0.0001536,"INCLINATION":87.9231,"RA_OF_ASC_NODE":9.0145,"ARG_OF_PERICENTER":102.7931,"MEAN_ANOMALY":257.3374,"EPHEMERIS_TYPE":0,"CLASSIFICATION_TYPE":"U","NORAD_CAT_ID":54147,"ELEMENT_SET_NO":999,"REV_AT_EPOCH":13432,"BSTAR":9.7102e-5,"MEAN_MOTION_DOT":5.2e-7,"MEAN_MOTION_DDOT":0},{"OBJECT_NAME":"ONEWEB-0536","OBJECT_ID":"2022-138AM","EPOCH":"2025-07-29T20:59:36.535488","MEAN_MOTION":13.20770814,"ECCENTRICITY":8.3e-5,"INCLINATION":87.9289,"RA_OF_ASC_NODE":338.6988,"ARG_OF_PERICENTER":95.4091,"MEAN_ANOMALY":264.7137,"EPHEMERIS_TYPE":0,"CLASSIFICATION_TYPE":"U","NORAD_CAT_ID":54148,"ELEMENT_SET_NO":999,"REV_AT_EPOCH":13675,"BSTAR":-6.7149e-5,"MEAN_MOTION_DOT":-1.4e-7,"MEAN_MOTION_DDOT":0}]
